[{"OBJECT_NAME":"STARLINK-5497","OBJECT_ID":"2023-021B","EPOCH":"2026-03-09T19:27:49.992192","MEAN_MOTION":14.98328534,"ECCENTRICITY":0.00018526,"INCLINATION":70.0001,"RA_OF_ASC_NODE":204.2603,"ARG_OF_PERICENTER":277.321,"MEAN_ANOMALY":82.7738,"EPHEMERIS_TYPE":0,"CLASSIFICATION_TYPE":"U","NORAD_CAT_ID":55629,"ELEMENT_SET_NO":999,"REV_AT_EPOCH":16831,"BSTAR":0.0002680748,"MEAN_MOTION_DOT":3.107e-5,"MEAN_MOTION_DDOT":0},{"OBJECT_NAME":"DELTA 2 R\/B(1)","OBJECT_ID":"1992-089B","EPOCH":"2026-03-09T21:18:04.780512","MEAN_MOTION":14.95843552,"ECCENTRICITY":0.00502643,"INCLINATION":20.2848,"RA_OF_ASC_NODE":268.5776,"ARG_OF_PERICENTER":187.692,"MEAN_ANOMALY":172.2737,"EPHEMERIS_TYPE":0,"CLASSIFICATION_TYPE":"U","NORAD_CAT_ID":22276,"ELEMENT_SET_NO":999,"REV_AT_EPOCH":77681,"BSTAR":0.00031307363,"MEAN_MOTION_DOT":4.132e-5,"MEAN_MOTION_DDOT":0}]
